ONEWEB-0207             
1 48242U 21031AJ  25332.07500919  .00000201  00000+0  50823-3 0  9996
2 48242  87.8996 329.7560 0001555  89.4259 270.7049 13.14501518221872
ONEWEB-0208             
1 48243U 21031AK  25332.05678160  .00000116  00000+0  27920-3 0  9996
2 48243  87.8988 329.7752 0001778  82.2924 277.8408 13.14502971221886
ONEWEB-0200             
1 48244U 21031AL  25332.02030392 -.00000092  00000+0 -28248-3 0  9992
2 48244  87.8983 329.7726 0001739  86.4975 273.6354 13.14502076221804
ONEWEB-0217             
1 48245U 21031AM  25332.03616120 -.00000180  00000+0 -52002-3 0  9996
2 48245  87.8995 329.7621 0001884  79.8739 280.2604 13.14502348221755
ONEWEB-0211             
1 48767U 21045A   25332.18941671  .00000053  00000+0  10521-3 0  9995
2 48767  87.8986 299.2271 0002246  74.7245 285.4134 13.16136231218000
ONEWEB-0223             
1 48768U 21045B   25332.17374824 -.00000109  00000+0 -32475-3 0  9991
2 48768  87.8984 299.2919 0002329  80.1001 280.0392 13.15547018217971
ONEWEB-0230             
1 48769U 21045C   25332.14523292  .00000138  00000+0  33311-3 0  9994
2 48769  87.8976 299.3287 0001847  87.7368 272.3974 13.15548673218233
ONEWEB-0237             
1 48770U 21045D   25332.21019647  .00000178  00000+0  43820-3 0  9998
2 48770  87.8980 299.3156 0002148  84.1144 276.0231 13.15548664217969
